1 01584U 65073A   21358.97206003 -.00000094  00000-0  93360-5 0  9995
2 01584  56.0586 252.2085 0211134 229.3008 238.9310 12.51879215572674
1 01584U 65073A   21359.46573598 -.00000097  00000-0 -12110-4 0  9993
2 01584  56.0585 250.8706 0211113 229.9753 303.8057 12.51879215572734
1 01584U 65073A   21359.92851837 -.00000099  00000-0 -20931-4 0  9991
2 01584  56.0584 249.6164 0211097 230.6057 229.4528 12.51879216572797
1 01584U 65073A   21360.62652872 -.00000099  00000-0 -24967-4 0  9991
2 01584  56.0583 247.7247 0211072 231.5583 135.2128 12.51879226572885
1 01584U 65073A   21360.96437497 -.00000098  00000-0 -19181-4 0  9993
2 01584  56.0583 246.8091 0211051 232.0174 217.8044 12.51879238572923
1  1584U 65073A   21361.13928216 -.00000097  00000-0 -12763-4 0  9995
2  1584  56.0582 246.3351 0211042 232.2558 286.0682 12.51879246573380
1 01584U 65073A   21361.46238142 -.00000097  00000-0 -12540-4 0  9996
2 01584  56.0582 245.4595 0211030 232.6969 302.1965 12.51879249572989
1 01584U 65073A   21361.92641891 -.00000096  00000-0 -35083-5 0  9993
2 01584  56.0581 244.2019 0211020 233.3295 233.4994 12.51879246573048
1 01584U 65073A   21362.09583664 -.00000095  00000-0  67617-6 0  9992
2 01584  56.0580 243.7427 0211013 233.5608 277.0231 12.51879241573061
1 01584U 65073A   21362.88277848 -.00000091  00000-0  26793-4 0  9997
2 01584  56.0579 241.6099 0210987 234.6340 223.5762 12.51879254573165
1 01584U 65073A   21363.05300543 -.00000088  00000-0  45496-4 0  9993
2 01584  56.0578 241.1486 0210978 234.8659 270.7473 12.51879261573187
1  1584U 65073A   21363.83534490 -.00000082  00000-0  76940-4 0  9991
2  1584  56.0577 239.0282 0210953 235.9327 196.5589 12.51879279573725
1 01584U 65073A   21363.92349875 -.00000082  00000-0  76140-4 0  9994
2 01584  56.0577 238.7893 0210950 236.0529 233.8465 12.51879262573294
1 01584U 65073A   21364.09300285 -.00000080  00000-0  88542-4 0  9992
2 01584  56.0577 238.3299 0210942 236.2839 277.7598 12.51879264573316
1 01584U 65073A   21364.95891497 -.00000071  00000-0  14346-3 0  9997
2 01584  56.0575 235.9831 0210911 237.4647 220.2126 12.51879294573420
1 01584U 65073A   21365.57783076 -.00000067  00000-0  16358-3 0  9999
2 01584  56.0575 234.3057 0210893 238.3099 129.5126 12.51879311573503
1 01584U 65073A   21365.91534477 -.00000067  00000-0  16543-3 0  9992
2 01584  56.0574 233.3909 0210884 238.7704 210.6050 12.51879312573547
1 01584U 65073A   22001.00739480 -.00000067  00000-0  16808-3 0  9995
2 01584  56.0574 233.1414 0210879 238.8953 265.4525 12.51879311573552
1  1584U 65073A   22001.00739480 -.00000067  00000-0  16808-3 0  9995
2  1584  56.0574 233.1414 0210879 238.8953 265.4525 12.51879311573990
1 01584U 65073A   22002.66006696 -.00000067  00000-0  16585-3 0  9996
2 01584  56.0573 228.6623 0210827 241.1501 153.6388 12.51879364573767
1 01584U 65073A   22003.95574622 -.00000080  00000-0  88304-4 0  9992
2 01584  56.0572 225.1506 0210794 242.9164 232.9478 12.51879342573920
1  1584U 65073A   22003.95574622 -.00000080  00000-0  88304-4 0  9992
2  1584  56.0572 225.1506 0210794 242.9164 232.9478 12.51879342574369
1 01584U 65073A   22004.90974281 -.00000083  00000-0  69394-4 0  9994
2 01584  56.0570 222.5650 0210781 244.2176 212.3770 12.51879413574043
1 01584U 65073A   22005.61409149 -.00000094  00000-0  53687-5 0  9990
2 01584  56.0569 220.6561 0210765 245.1823 146.6996 12.51879404574131
1 01584U 65073A   22005.86648957 -.00000097  00000-0 -84748-5 0  9995
2 01584  56.0568 219.9720 0210760 245.5265 204.1958 12.51879390574162
1  1584U 65073A   22006.04214667 -.00000097  00000-0 -85314-5 0  9993
2  1584  56.0568 219.4960 0210754 245.7669 275.8384 12.51879401574639
1 01584U 65073A   22006.57081865 -.00000099  00000-0 -25448-4 0  9996
2 01584  56.0567 218.0631 0210745 246.4888 138.4327 12.51879416574254
1 01584U 65073A   22006.90687685 -.00000103  00000-0 -47893-4 0  9999
2 01584  56.0566 217.1523 0210740 246.9490 212.9626 12.51879387574293
1 01584U 65073A   22007.52745515 -.00000104  00000-0 -51428-4 0  9995
2 01584  56.0565 215.4704 0210728 247.7985 129.7536 12.51879393574379
1 01584U 65073A   22007.84533664 -.00000107  00000-0 -72654-4 0  9997
2 01584  56.0565 214.6088 0210721 248.2319 122.3675 12.51879358574414
1 01584U 65073A   22008.48508171 -.00000103  00000-0 -49456-4 0  9993
2 01584  56.0564 212.8749 0210703 249.1057 125.5403 12.51879387574490
1  1584U 65073A   22008.48508171 -.00000103  00000-0 -49456-4 0  9993
2  1584  56.0564 212.8749 0210703 249.1057 125.5403 12.51879387574939
1 01584U 65073A   22008.90413372 -.00000100  00000-0 -30854-4 0  9997
2 01584  56.0563 211.7392 0210698 249.6780 214.1041 12.51879392574547
1 01584U 65073A   22009.52469660 -.00000097  00000-0 -11278-4 0  9991
2 01584  56.0562 210.0572 0210688 250.5276 130.8254 12.51879385574629
1 01584U 65073A   22009.86061265 -.00000096  00000-0 -58604-5 0  9991
2 01584  56.0562 209.1468 0210681 250.9862 204.7160 12.51879367574661
1 01584U 65073A   22010.56117069 -.00000093  00000-0  10844-4 0  9993
2 01584  56.0562 207.2480 0210670 251.9442 121.9564 12.51879361574759
1 01584U 65073A   22010.81752279 -.00000094  00000-0  61902-5 0  9992
2 01584  56.0567 206.5532 0210690 252.2963 197.2700 12.51879407574780
1  1584U 65073A   22010.81752279 -.00000094  00000-0  61902-5 0  9992
2  1584  56.0567 206.5532 0210690 252.2963 197.2700 12.51879407575220
1 01584U 65073A   22011.52194672 -.00000084  00000-0  67667-4 0  9990
2 01584  56.0563 204.6440 0210657 253.2565 131.9360 12.51879380574872
1 01584U 65073A   22011.83791713 -.00000082  00000-0  76772-4 0  9998
2 01584  56.0563 203.7876 0210652 253.6879 115.9364 12.51879371574913
1 01584U 65073A   22012.03520853 -.00000083  00000-0  70005-4 0  9990
2 01584  56.0563 203.2529 0210647 253.9584 285.0788 12.51879362574934
1 01584U 65073A   22013.44937178 -.00000077  00000-0  10980-3 0  9996
2 01584  56.0565 199.4201 0210629 255.8934 178.3594 12.51879429575113
1  1584U 65073A   22013.44937178 -.00000077  00000-0  10980-3 0  9996
2  1584  56.0565 199.4201 0210629 255.8934 178.3594 12.51879429575551
1 01584U 65073A   22013.77705031 -.00000079  00000-0  97108-4 0  9993
2 01584  56.0565 198.5320 0210627 256.3398 215.1268 12.51879429575155
1 01584U 65073A   22014.27009184 -.00000081  00000-0  83278-4 0  9991
2 01584  56.0565 197.1957 0210621 257.0149 277.1415 12.51879437575210
1 01584U 65073A   22014.79275346 -.00000081  00000-0  85905-4 0  9992
2 01584  56.0566 195.7791 0210612 257.7297 112.6474 12.51879460575283
1 01584U 65073A   22015.60415572 -.00000093  00000-0  15274-4 0  9995
2 01584  56.0567 193.5801 0210608 258.8392 169.4356 12.51879451575385
1  1584U 65073A   22015.75101500 -.00000090  00000-0  27371-4 0  9992
2  1584  56.0567 193.1821 0210610 259.0391 111.2949 12.51879468575840
1 01584U 65073A   22015.94379455 -.00000092  00000-0  19013-4 0  9995
2 01584  56.0568 192.6596 0210605 259.3033 260.1039 12.51879471575426
1 01584U 65073A   22016.47306039 -.00000094  00000-0  63308-5 0  9991
2 01584  56.0568 191.2251 0210606 260.0274 125.3733 12.51879500575499
1 01584U 65073A   22016.78910243 -.00000097  00000-0 -13975-4 0  9991
2 01584  56.0568 190.3686 0210605 260.4595 109.6962 12.51879489575530
1 01584U 65073A   22017.60106017 -.00000109  00000-0 -80612-4 0  9995
2 01584  56.0570 188.1679 0210599 261.5701 168.9879 12.51879473575632
1 01584U 65073A   22017.74741244 -.00000107  00000-0 -73159-4 0  9993
2 01584  56.0570 187.7713 0210600 261.7701 108.5612 12.51879474575659
1  1584U 65073A   22018.18317044 -.00000112  00000-0 -97420-4 0  9992
2  1584  56.0570 186.5903 0210593 262.3672 272.4131 12.51879479576150
1 01584U 65073A   22018.47060939 -.00000112  00000-0 -10206-3 0  9998
2 01584  56.0570 185.8113 0210593 262.7597 127.8296 12.51879480575746
1 01584U 65073A   22018.80857963 -.00000113  00000-0 -10337-3 0  9992
2 01584  56.0571 184.8953 0210598 263.2214 210.9779 12.51879477575785
1 01584U 65073A   22019.42695302 -.00000112  00000-0 -10026-3 0  9992
2 01584  56.0571 183.2194 0210597 264.0673 117.8326 12.51879479575866
1 01584U 65073A   22019.74387878 -.00000111  00000-0 -96636-4 0  9994
2 01584  56.0572 182.3604 0210604 264.5000 106.1389 12.51879473575900
1  1584U 65073A   22020.46740812 -.00000110  00000-0 -88604-4 0  9991
2  1584  56.0573 180.3995 0210603 265.4895 126.9054 12.51879474576432
1 01584U 65073A   22020.55533251 -.00000114  00000-0 -10888-3 0  9990
2 01584  56.0573 180.1612 0210600 265.6097 163.1586 12.51879444576002
1 01584U 65073A   22020.80532307 -.00000110  00000-0 -90404-4 0  9998
2 01584  56.0573 179.4836 0210600 265.9515 209.8036 12.51879433576038
1 01584U 65073A   22021.59411983 -.00000105  00000-0 -59813-4 0  9994
2 01584  56.0574 177.3458 0210599 267.0303 164.7140 12.51879436576130
1 01584U 65073A   22021.74028993 -.00000102  00000-0 -39795-4 0  9990
2 01584  56.0574 176.9497 0210599 267.2307 103.4656 12.51879435576157
1 01584U 65073A   22022.55196316 -.00000100  00000-0 -29711-4 0  9990
2 01584  56.0575 174.7498 0210594 268.3409 161.4741 12.51879408576255
1 01584U 65073A   22022.80962914 -.00000095  00000-0  21202-5 0  9993
2 01584  56.0576 174.0515 0210600 268.6932 242.7104 12.51879409576281
1  1584U 65073A   22022.80962914 -.00000095  00000-0  21202-5 0  9993
2  1584  56.0576 174.0515 0210600 268.6932 242.7104 12.51879409576720
1 01584U 65073A   22023.59037862 -.00000092  00000-0  18567-4 0  9991
2 01584  56.0576 171.9354 0210591 269.7609 161.3538 12.51879411576381
1 01584U 65073A   22023.76013344 -.00000087  00000-0  50206-4 0  9999
2 01584  56.0577 171.4754 0210596 269.9925 206.3969 12.51879433576404
1 01584U 65073A   22024.54849184 -.00000082  00000-0  77270-4 0  9990
2 01584  56.0577 169.3387 0210604 271.0709 159.3315 12.51879446576503
1 01584U 65073A   22024.88975931 -.00000079  00000-0  93773-4 0  9999
2 01584  56.0578 168.4138 0210603 271.5377 257.3386 12.51879451576540
1  1584U 65073A   22025.13045359 -.00000080  00000-0  86843-4 0  9992
2  1584  56.0579 167.7615 0210605 271.8674 262.0874 12.51879455577021
